{
  "type": "FeatureCollection",
  "features": [
    {
      "type": "Feature",
      "properties": {
        "norad_id": 35786,
        "name": "COSMOS 2251 DEB",
        "group": "cosmos-2251-debris",
        "lat": 73.77848340852417,
        "lon": 140.31317194452186,
        "alt_km": 672.3954170184297,
        "timestamp": "2025-12-04T05:42:43.768729+00:00",
        "meta_object_name": "COSMOS 2251 DEB",
        "meta_object_id": "1993-036ASG",
        "meta_epoch": "2025-12-02T12:22:11.536320",
        "meta_mean_motion": 14.66021148,
        "meta_eccentricity": 0.00350306,
        "meta_inclination": 74.016,
        "meta_ra_of_asc_node": 63.4983,
        "meta_arg_of_pericenter": 195.5115,
        "meta_mean_anomaly": 164.4984,
        "meta_ephemeris_type": 0,
        "meta_classification_type": "U",
        "meta_norad_cat_id": 35786,
        "meta_element_set_no": 999,
        "meta_rev_at_epoch": 73258,
        "meta_bstar": 0.0015897708,
        "meta_mean_motion_dot": 8.775e-05,
        "meta_mean_motion_ddot": 0,
        "tle_line1": "1 35786U 93036ASG 25336.51541130  .00008775  00000+0  15898-2 0  9998",
        "tle_line2": "2 35786  74.0160  63.4983 0035030 195.5115 164.4984 14.66021148732584"
      },
      "geometry": {
        "type": "Point",
        "coordinates": [
          140.31317194452186,
          73.77848340852417
        ]
      }
    },
    {
      "type": "Feature",
      "properties": {
        "norad_id": 35789,
        "name": "COSMOS 2251 DEB",
        "group": "cosmos-2251-debris",
        "lat": -16.71570933838442,
        "lon": -64.95210096279067,
        "alt_km": 759.0206872597091,
        "timestamp": "2025-12-04T05:42:43.768738+00:00",
        "meta_object_name": "COSMOS 2251 DEB",
        "meta_object_id": "1993-036ASK",
        "meta_epoch": "2025-11-30T08:09:35.692416",
        "meta_mean_motion": 14.35969306,
        "meta_eccentricity": 0.00469384,
        "meta_inclination": 74.039,
        "meta_ra_of_asc_node": 307.1301,
        "meta_arg_of_pericenter": 49.9649,
        "meta_mean_anomaly": 310.5607,
        "meta_ephemeris_type": 0,
        "meta_classification_type": "U",
        "meta_norad_cat_id": 35789,
        "meta_element_set_no": 999,
        "meta_rev_at_epoch": 61049,
        "meta_bstar": 0.00014941887,
        "meta_mean_motion_dot": 4.13e-06,
        "meta_mean_motion_ddot": 0,
        "tle_line1": "1 35789U 93036ASK 25334.33999644  .00000413  00000+0  14942-3 0  9997",
        "tle_line2": "2 35789  74.0390 307.1301 0046938  49.9649 310.5607 14.35969306610491"
      },
      "geometry": {
        "type": "Point",
        "coordinates": [
          -64.95210096279067,
          -16.71570933838442
        ]
      }
    },
    {
      "type": "Feature",
      "properties": {
        "norad_id": 35793,
        "name": "COSMOS 2251 DEB",
        "group": "cosmos-2251-debris",
        "lat": 4.540941661940231,
        "lon": -104.41201293000749,
        "alt_km": 634.2171172105618,
        "timestamp": "2025-12-04T05:42:43.768749+00:00",
        "meta_object_name": "COSMOS 2251 DEB",
        "meta_object_id": "1993-036ASP",
        "meta_epoch": "2025-11-29T00:24:11.235744",
        "meta_mean_motion": 14.78106278,
        "meta_eccentricity": 0.00040307,
        "meta_inclination": 74.0402,
        "meta_ra_of_asc_node": 87.138,
        "meta_arg_of_pericenter": 165.1184,
        "meta_mean_anomaly": 317.1346,
        "meta_ephemeris_type": 0,
        "meta_classification_type": "U",
        "meta_norad_cat_id": 35793,
        "meta_element_set_no": 999,
        "meta_rev_at_epoch": 65594,
        "meta_bstar": 0.0021008898,
        "meta_mean_motion_dot": 0.00015203,
        "meta_mean_motion_ddot": 0,
        "tle_line1": "1 35793U 93036ASP 25333.01679671  .00015203  00000+0  21009-2 0  9995",
        "tle_line2": "2 35793  74.0402  87.1380 0004030 165.1184 317.1346 14.78106278655944"
      },
      "geometry": {
        "type": "Point",
        "coordinates": [
          -104.41201293000749,
          4.540941661940231
        ]
      }
    },
    {
      "type": "Feature",
      "properties": {
        "norad_id": 35824,
        "name": "COSMOS 2251 DEB",
        "group": "cosmos-2251-debris",
        "lat": 62.918275272324856,
        "lon": 97.93394157298025,
        "alt_km": 901.1717973828163,
        "timestamp": "2025-12-04T05:42:43.768759+00:00",
        "meta_object_name": "COSMOS 2251 DEB",
        "meta_object_id": "1993-036ASW",
        "meta_epoch": "2025-12-03T12:05:08.597472",
        "meta_mean_motion": 13.88357909,
        "meta_eccentricity": 0.02501454,
        "meta_inclination": 73.8459,
        "meta_ra_of_asc_node": 64.6657,
        "meta_arg_of_pericenter": 152.4307,
        "meta_mean_anomaly": 209.0351,
        "meta_ephemeris_type": 0,
        "meta_classification_type": "U",
        "meta_norad_cat_id": 35824,
        "meta_element_set_no": 999,
        "meta_rev_at_epoch": 84099,
        "meta_bstar": 0.0020735278,
        "meta_mean_motion_dot": 3.165e-05,
        "meta_mean_motion_ddot": 0,
        "tle_line1": "1 35824U 93036ASW 25337.50357173  .00003165  00000+0  20735-2 0  9997",
        "tle_line2": "2 35824  73.8459  64.6657 0250145 152.4307 209.0351 13.88357909840996"
      },
      "geometry": {
        "type": "Point",
        "coordinates": [
          97.93394157298025,
          62.918275272324856
        ]
      }
    },
    {
      "type": "Feature",
      "properties": {
        "norad_id": 35825,
        "name": "COSMOS 2251 DEB",
        "group": "cosmos-2251-debris",
        "lat": -71.63641619386803,
        "lon": 35.70201782491048,
        "alt_km": 744.195590865219,
        "timestamp": "2025-12-04T05:42:43.768769+00:00",
        "meta_object_name": "COSMOS 2251 DEB",
        "meta_object_id": "1993-036ASX",
        "meta_epoch": "2025-11-18T20:38:01.180896",
        "meta_mean_motion": 13.70825357,
        "meta_eccentricity": 0.03535711,
        "meta_inclination": 74.1138,
        "meta_ra_of_asc_node": 181.8907,
        "meta_arg_of_pericenter": 283.1782,
        "meta_mean_anomaly": 73.0118,
        "meta_ephemeris_type": 0,
        "meta_classification_type": "U",
        "meta_norad_cat_id": 35825,
        "meta_element_set_no": 999,
        "meta_rev_at_epoch": 82181,
        "meta_bstar": 0.0013809564,
        "meta_mean_motion_dot": 1.891e-05,
        "meta_mean_motion_ddot": 0,
        "tle_line1": "1 35825U 93036ASX 25322.85973589  .00001891  00000+0  13810-2 0  9995",
        "tle_line2": "2 35825  74.1138 181.8907 0353571 283.1782  73.0118 13.70825357821819"
      },
      "geometry": {
        "type": "Point",
        "coordinates": [
          35.70201782491048,
          -71.63641619386803
        ]
      }
    },
    {
      "type": "Feature",
      "properties": {
        "norad_id": 35829,
        "name": "COSMOS 2251 DEB",
        "group": "cosmos-2251-debris",
        "lat": 11.919114764406364,
        "lon": -68.00538704737977,
        "alt_km": 638.1013669961612,
        "timestamp": "2025-12-04T05:42:43.768779+00:00",
        "meta_object_name": "COSMOS 2251 DEB",
        "meta_object_id": "1993-036ATB",
        "meta_epoch": "2025-12-03T15:56:27.700800",
        "meta_mean_motion": 14.75846319,
        "meta_eccentricity": 0.00075446,
        "meta_inclination": 74.0232,
        "meta_ra_of_asc_node": 116.5849,
        "meta_arg_of_pericenter": 175.4775,
        "meta_mean_anomaly": 184.6468,
        "meta_ephemeris_type": 0,
        "meta_classification_type": "U",
        "meta_norad_cat_id": 35829,
        "meta_element_set_no": 999,
        "meta_rev_at_epoch": 87641,
        "meta_bstar": 0.0033498788,
        "meta_mean_motion_dot": 0.00023044,
        "meta_mean_motion_ddot": 0,
        "tle_line1": "1 35829U 93036ATB 25337.66420950  .00023044  00000+0  33499-2 0  9992",
        "tle_line2": "2 35829  74.0232 116.5849 0007544 175.4775 184.6468 14.75846319876418"
      },
      "geometry": {
        "type": "Point",
        "coordinates": [
          -68.00538704737977,
          11.919114764406364
        ]
      }
    },
    {
      "type": "Feature",
      "properties": {
        "norad_id": 35830,
        "name": "COSMOS 2251 DEB",
        "group": "cosmos-2251-debris",
        "lat": -73.07148615526619,
        "lon": 173.9469663775528,
        "alt_km": 732.7320746572996,
        "timestamp": "2025-12-04T05:42:43.768789+00:00",
        "meta_object_name": "COSMOS 2251 DEB",
        "meta_object_id": "1993-036ATC",
        "meta_epoch": "2025-12-03T04:51:39.093120",
        "meta_mean_motion": 14.23892585,
        "meta_eccentricity": 0.0123282,
        "meta_inclination": 73.8624,
        "meta_ra_of_asc_node": 283.793,
        "meta_arg_of_pericenter": 253.8519,
        "meta_mean_anomaly": 104.9029,
        "meta_ephemeris_type": 0,
        "meta_classification_type": "U",
        "meta_norad_cat_id": 35830,
        "meta_element_set_no": 999,
        "meta_rev_at_epoch": 61128,
        "meta_bstar": 0.0012831,
        "meta_mean_motion_dot": 3.154e-05,
        "meta_mean_motion_ddot": 0,
        "tle_line1": "1 35830U 93036ATC 25337.20253580  .00003154  00000+0  12831-2 0  9994",
        "tle_line2": "2 35830  73.8624 283.7930 0123282 253.8519 104.9029 14.23892585611284"
      },
      "geometry": {
        "type": "Point",
        "coordinates": [
          173.9469663775528,
          -73.07148615526619
        ]
      }
    }
  ]
}